CCSDS_OMM_VERS = 2.0
CREATION_DATE  = 
ORIGINATOR     = 

OBJECT_NAME    = OKEAN-3
OBJECT_ID      = 1991-039A
CENTER_NAME    = EARTH
REF_FRAME      = TEME
TIME_SYSTEM    = UTC
MEAN_ELEMENT_THEORY = SGP/SGP4

EPOCH          = 2025-11-04T16:35:11.509152
MEAN_MOTION    = 15.03720817
ECCENTRICITY   = .00154935
INCLINATION    = 82.5141
RA_OF_ASC_NODE = 97.8623
ARG_OF_PERICENTER = 39.7173
MEAN_ANOMALY   = 320.5184

EPHEMERIS_TYPE = 0
CLASSIFICATION_TYPE = U
NORAD_CAT_ID   = 21397
ELEMENT_SET_NO = 999
REV_AT_EPOCH   = 84624
BSTAR          = .31069233E-3
MEAN_MOTION_DOT = .4297E-4
MEAN_MOTION_DDOT = 0

CCSDS_OMM_VERS = 2.0
CREATION_DATE  = 
ORIGINATOR     = 

OBJECT_NAME    = COSMOS 2151
OBJECT_ID      = 1991-042A
CENTER_NAME    = EARTH
REF_FRAME      = TEME
TIME_SYSTEM    = UTC
MEAN_ELEMENT_THEORY = SGP/SGP4

EPOCH          = 2025-11-05T02:56:48.326784
MEAN_MOTION    = 14.99477186
ECCENTRICITY   = .00139443
INCLINATION    = 82.4995
RA_OF_ASC_NODE = 203.7422
ARG_OF_PERICENTER = 115.7948
MEAN_ANOMALY   = 244.4716

EPHEMERIS_TYPE = 0
CLASSIFICATION_TYPE = U
NORAD_CAT_ID   = 21422
ELEMENT_SET_NO = 999
REV_AT_EPOCH   = 84452
BSTAR          = .20496585E-3
MEAN_MOTION_DOT = .2545E-4
MEAN_MOTION_DDOT = 0

CCSDS_OMM_VERS = 2.0
CREATION_DATE  = 
ORIGINATOR     = 

OBJECT_NAME    = SL-14 R/B
OBJECT_ID      = 1991-042B
CENTER_NAME    = EARTH
REF_FRAME      = TEME
TIME_SYSTEM    = UTC
MEAN_ELEMENT_THEORY = SGP/SGP4

EPOCH          = 2025-11-05T04:00:43.969248
MEAN_MOTION    = 14.81686631
ECCENTRICITY   = .00155687
INCLINATION    = 82.4929
RA_OF_ASC_NODE = 336.9613
ARG_OF_PERICENTER = 292.4099
MEAN_ANOMALY   = 67.5466

EPHEMERIS_TYPE = 0
CLASSIFICATION_TYPE = U
NORAD_CAT_ID   = 21423
ELEMENT_SET_NO = 999
REV_AT_EPOCH   = 83463
BSTAR          = .53872838E-4
MEAN_MOTION_DOT = .448E-5
MEAN_MOTION_DDOT = 0

CCSDS_OMM_VERS = 2.0
CREATION_DATE  = 
ORIGINATOR     = 

OBJECT_NAME    = ERS-1
OBJECT_ID      = 1991-050A
CENTER_NAME    = EARTH
REF_FRAME      = TEME
TIME_SYSTEM    = UTC
MEAN_ELEMENT_THEORY = SGP/SGP4

EPOCH          = 2025-11-05T01:25:13.451808
MEAN_MOTION    = 14.39319387
ECCENTRICITY   = .00314555
INCLINATION    = 98.7928
RA_OF_ASC_NODE = 319.1673
ARG_OF_PERICENTER = 210.3987
MEAN_ANOMALY   = 149.5376

EPHEMERIS_TYPE = 0
CLASSIFICATION_TYPE = U
NORAD_CAT_ID   = 21574
ELEMENT_SET_NO = 999
REV_AT_EPOCH   = 79780
BSTAR          = .12339607E-3
MEAN_MOTION_DOT = .339E-5
MEAN_MOTION_DDOT = 0

CCSDS_OMM_VERS = 2.0
CREATION_DATE  = 
ORIGINATOR     = 

OBJECT_NAME    = ARIANE 40 R/B
OBJECT_ID      = 1991-050F
CENTER_NAME    = EARTH
REF_FRAME      = TEME
TIME_SYSTEM    = UTC
MEAN_ELEMENT_THEORY = SGP/SGP4

EPOCH          = 2025-11-05T03:05:54.032640
MEAN_MOTION    = 14.42762925
ECCENTRICITY   = .00043911
INCLINATION    = 98.2221
RA_OF_ASC_NODE = 0.9074
ARG_OF_PERICENTER = 93.2674
MEAN_ANOMALY   = 266.9019

EPHEMERIS_TYPE = 0
CLASSIFICATION_TYPE = U
NORAD_CAT_ID   = 21610
ELEMENT_SET_NO = 999
REV_AT_EPOCH   = 80103
BSTAR          = .12858275E-3
MEAN_MOTION_DOT = .387E-5
MEAN_MOTION_DDOT = 0

CCSDS_OMM_VERS = 2.0
CREATION_DATE  = 
ORIGINATOR     = 

OBJECT_NAME    = INTERCOSMOS 25
OBJECT_ID      = 1991-086A
CENTER_NAME    = EARTH
REF_FRAME      = TEME
TIME_SYSTEM    = UTC
MEAN_ELEMENT_THEORY = SGP/SGP4

EPOCH          = 2025-11-05T05:37:06.945024
MEAN_MOTION    = 12.11564733
ECCENTRICITY   = .14887255
INCLINATION    = 82.6089
RA_OF_ASC_NODE = 25.2426
ARG_OF_PERICENTER = 25.2279
MEAN_ANOMALY   = 341.4500

EPHEMERIS_TYPE = 0
CLASSIFICATION_TYPE = U
NORAD_CAT_ID   = 21819
ELEMENT_SET_NO = 999
REV_AT_EPOCH   = 48161
BSTAR          = .2775269E-3
MEAN_MOTION_DOT = .1435E-4
MEAN_MOTION_DDOT = 0

CCSDS_OMM_VERS = 2.0
CREATION_DATE  = 
ORIGINATOR     = 

OBJECT_NAME    = SL-8 R/B
OBJECT_ID      = 1992-008B
CENTER_NAME    = EARTH
REF_FRAME      = TEME
TIME_SYSTEM    = UTC
MEAN_ELEMENT_THEORY = SGP/SGP4

EPOCH          = 2025-11-05T05:31:28.492032
MEAN_MOTION    = 13.75947487
ECCENTRICITY   = .0035977
INCLINATION    = 82.9294
RA_OF_ASC_NODE = 0.3453
ARG_OF_PERICENTER = 121.3418
MEAN_ANOMALY   = 302.6235

EPHEMERIS_TYPE = 0
CLASSIFICATION_TYPE = U
NORAD_CAT_ID   = 21876
ELEMENT_SET_NO = 999
REV_AT_EPOCH   = 69230
BSTAR          = .10984944E-3
MEAN_MOTION_DOT = .123E-5
MEAN_MOTION_DDOT = 0

CCSDS_OMM_VERS = 2.0
CREATION_DATE  = 
ORIGINATOR     = 

OBJECT_NAME    = SL-8 R/B
OBJECT_ID      = 1992-020B
CENTER_NAME    = EARTH
REF_FRAME      = TEME
TIME_SYSTEM    = UTC
MEAN_ELEMENT_THEORY = SGP/SGP4

EPOCH          = 2025-11-05T07:36:14.093856
MEAN_MOTION    = 13.75520262
ECCENTRICITY   = .00276975
INCLINATION    = 82.9302
RA_OF_ASC_NODE = 246.1051
ARG_OF_PERICENTER = 286.2573
MEAN_ANOMALY   = 184.3085

EPHEMERIS_TYPE = 0
CLASSIFICATION_TYPE = U
NORAD_CAT_ID   = 21938
ELEMENT_SET_NO = 999
REV_AT_EPOCH   = 68403
BSTAR          = .40943194E-4
MEAN_MOTION_DOT = .54E-6
MEAN_MOTION_DDOT = 0

CCSDS_OMM_VERS = 2.0
CREATION_DATE  = 
ORIGINATOR     = 

OBJECT_NAME    = USA 81
OBJECT_ID      = 1992-023A
CENTER_NAME    = EARTH
REF_FRAME      = TEME
TIME_SYSTEM    = UTC
MEAN_ELEMENT_THEORY = SGP/SGP4

EPOCH          = 2025-11-05T05:45:07.055136
MEAN_MOTION    = 14.32305790
ECCENTRICITY   = .00027508
INCLINATION    = 85.0116
RA_OF_ASC_NODE = 203.1970
ARG_OF_PERICENTER = 82.5942
MEAN_ANOMALY   = 277.5563

EPHEMERIS_TYPE = 0
CLASSIFICATION_TYPE = U
NORAD_CAT_ID   = 21949
ELEMENT_SET_NO = 999
REV_AT_EPOCH   = 7697
BSTAR          = .83310182E-4
MEAN_MOTION_DOT = .245E-5
MEAN_MOTION_DDOT = 0

CCSDS_OMM_VERS = 2.0
CREATION_DATE  = 
ORIGINATOR     = 

OBJECT_NAME    = COSMOS 2219
OBJECT_ID      = 1992-076A
CENTER_NAME    = EARTH
REF_FRAME      = TEME
TIME_SYSTEM    = UTC
MEAN_ELEMENT_THEORY = SGP/SGP4

EPOCH          = 2025-11-05T05:35:15.359424
MEAN_MOTION    = 14.14061379
ECCENTRICITY   = .00171753
INCLINATION    = 71.0600
RA_OF_ASC_NODE = 278.2339
ARG_OF_PERICENTER = 23.7023
MEAN_ANOMALY   = 336.4886

EPHEMERIS_TYPE = 0
CLASSIFICATION_TYPE = U
NORAD_CAT_ID   = 22219
ELEMENT_SET_NO = 999
REV_AT_EPOCH   = 70078
BSTAR          = .18847559E-3
MEAN_MOTION_DOT = .312E-5
MEAN_MOTION_DDOT = 0

CCSDS_OMM_VERS = 2.0
CREATION_DATE  = 
ORIGINATOR     = 

OBJECT_NAME    = SL-16 R/B
OBJECT_ID      = 1992-076B
CENTER_NAME    = EARTH
REF_FRAME      = TEME
TIME_SYSTEM    = UTC
MEAN_ELEMENT_THEORY = SGP/SGP4

EPOCH          = 2025-11-05T04:18:24.928416
MEAN_MOTION    = 14.16832135
ECCENTRICITY   = .00150353
INCLINATION    = 70.9988
RA_OF_ASC_NODE = 90.6480
ARG_OF_PERICENTER = 282.8383
MEAN_ANOMALY   = 249.9845

EPHEMERIS_TYPE = 0
CLASSIFICATION_TYPE = U
NORAD_CAT_ID   = 22220
ELEMENT_SET_NO = 999
REV_AT_EPOCH   = 70419
BSTAR          = .15988511E-3
MEAN_MOTION_DOT = .273E-5
MEAN_MOTION_DDOT = 0

CCSDS_OMM_VERS = 2.0
CREATION_DATE  = 
ORIGINATOR     = 

OBJECT_NAME    = COSMOS 2221
OBJECT_ID      = 1992-080A
CENTER_NAME    = EARTH
REF_FRAME      = TEME
TIME_SYSTEM    = UTC
MEAN_ELEMENT_THEORY = SGP/SGP4

EPOCH          = 2025-11-05T06:51:26.538048
MEAN_MOTION    = 14.95532722
ECCENTRICITY   = .00132788
INCLINATION    = 82.5072
RA_OF_ASC_NODE = 38.1615
ARG_OF_PERICENTER = 248.0441
MEAN_ANOMALY   = 111.9369

EPHEMERIS_TYPE = 0
CLASSIFICATION_TYPE = U
NORAD_CAT_ID   = 22236
ELEMENT_SET_NO = 999
REV_AT_EPOCH   = 76219
BSTAR          = .21831489E-3
MEAN_MOTION_DOT = .2448E-4
MEAN_MOTION_DDOT = 0

