OKEAN-3                 
1 21397U 91039A   25308.69110543  .00004297  00000+0  31069-3 0  9994
2 21397  82.5141  97.8623 0015493  39.7173 320.5184 15.03720817846243
COSMOS 2151             
1 21422U 91042A   25309.12278156  .00002545  00000+0  20497-3 0  9998
2 21422  82.4995 203.7422 0013944 115.7948 244.4716 14.99477186844523
SL-14 R/B               
1 21423U 91042B   25309.16717557  .00000448  00000+0  53873-4 0  9991
2 21423  82.4929 336.9613 0015568 292.4099  67.5466 14.81686631834631
ERS-1                   
1 21574U 91050A   25309.05918347  .00000339  00000+0  12340-3 0  9997
2 21574  98.7928 319.1673 0031455 210.3987 149.5376 14.39319387797806
ARIANE 40 R/B           
1 21610U 91050F   25309.12909760  .00000387  00000+0  12858-3 0  9992
2 21610  98.2221   0.9074 0004391  93.2674 266.9019 14.42762925801031
INTERCOSMOS 25          
1 21819U 91086A   25309.23410816  .00001435  00000+0  27753-3 0  9998
2 21819  82.6089  25.2426 1488725  25.2279 341.4500 12.11564733481619
SL-8 R/B                
1 21876U 92008B   25309.23019088  .00000123  00000+0  10985-3 0  9994
2 21876  82.9294   0.3453 0035977 121.3418 302.6235 13.75947487692302
SL-8 R/B                
1 21938U 92020B   25309.31682979  .00000054  00000+0  40943-4 0  9992
2 21938  82.9302 246.1051 0027697 286.2573 184.3085 13.75520262684035
USA 81                  
1 21949U 92023A   25309.23966499  .00000245  00000+0  83310-4 0  9997
2 21949  85.0116 203.1970 0002750  82.5942 277.5563 14.32305790 76972
COSMOS 2219             
1 22219U 92076A   25309.23281666  .00000312  00000+0  18848-3 0  9990
2 22219  71.0600 278.2339 0017175  23.7023 336.4886 14.14061379700780
SL-16 R/B               
1 22220U 92076B   25309.17945519  .00000273  00000+0  15989-3 0  9998
2 22220  70.9988  90.6480 0015035 282.8383 249.9845 14.16832135704192
COSMOS 2221             
1 22236U 92080A   25309.28572382  .00002448  00000+0  21831-3 0  9995
2 22236  82.5072  38.1615 0013278 248.0441 111.9369 14.95532722762194
